IRIDIUM 124             
1 42810U 17039H   26088.18351546  .00000415  00000+0  11733-3 0  9999
2 42810  86.4502 323.8320 0002115  87.7365 272.4078 14.43289186463579
IRIDIUM 128             
1 42811U 17039J   26088.18466110  .00000153  00000+0  47680-4 0  9994
2 42811  86.3944  58.5858 0002342  91.0515 269.0949 14.34218483458513
IRIDIUM 121             
1 42812U 17039K   26088.21294379  .00000196  00000+0  63042-4 0  9992
2 42812  86.4006  27.0808 0002277  85.1604 274.9852 14.34216757458363
IRIDIUM 133             
1 42955U 17061A   26088.14660539  .00000079  00000+0  21243-4 0  9999
2 42955  86.3943  58.7175 0002247  89.1273 271.0180 14.34217981443301
IRIDIUM 100             
1 42956U 17061B   26088.21003109  .00000205  00000+0  65971-4 0  9999
2 42956  86.3943  58.6115 0002207  89.0978 271.0471 14.34218312443315
IRIDIUM 122             
1 42957U 17061C   26087.89924387 -.00000016  00000+0 -12845-4 0  9997
2 42957  86.3941  58.7418 0002045  88.4954 271.6476 14.34217990443275
IRIDIUM 129             
1 42958U 17061D   26088.20368851  .00000054  00000+0  12128-4 0  9996
2 42958  86.3943  58.6802 0002149  78.8937 281.2500 14.34217590443331
IRIDIUM 119             
1 42959U 17061E   26087.89290137  .00000042  00000+0  79484-5 0  9998
2 42959  86.3945  58.8059 0002065  85.7338 274.4093 14.34217382443306
IRIDIUM 107             
1 42960U 17061F   26088.19100332  .00000030  00000+0  36016-5 0  9992
2 42960  86.3945  58.7018 0002072  94.6257 265.5175 14.34217704443354
IRIDIUM 132             
1 42961U 17061G   26088.19734609  .00000015  00000+0 -17833-5 0  9993
2 42961  86.3944  58.6795 0002094  90.0819 270.0616 14.34217581443357
IRIDIUM 136             
1 42962U 17061H   26088.15929009  .00000097  00000+0  27703-4 0  9995
2 42962  86.3945  58.7014 0002075  87.4399 272.7035 14.34218193443361
IRIDIUM 139             
1 42963U 17061J   26088.16563277  .00000180  00000+0  57369-4 0  9992
2 42963  86.3947  58.7594 0002244  89.7713 270.3740 14.34218427443378
IRIDIUM 125             
1 42964U 17061K   26088.15294570  .00000245  00000+0  80343-4 0  9999
2 42964  86.3946  58.8244 0001654  91.2309 268.9076 14.34218866443387
IRIDIUM 135             
1 43070U 17083A   26088.19684204  .00000273  00000+0  90421-4 0  9992
2 43070  86.4026 355.4513 0002186  85.6668 274.4778 14.34219127432680
IRIDIUM 138             
1 43071U 17083B   26088.15244379  .00000323  00000+0  10828-3 0  9992
2 43071  86.4038 355.1532 0001864  77.9435 282.1970 14.34219204432664
IRIDIUM 116             
1 43072U 17083C   26088.19049589  .00000307  00000+0  10256-3 0  9990
2 43072  86.4024 355.4408 0002384  89.4625 270.6844 14.34215920432700
IRIDIUM 130             
1 43073U 17083D   26088.15878691 -.00000031  00000+0 -18090-4 0  9992
2 43073  86.4027 355.7212 0002077  92.6550 267.4884 14.34217533432645
