[{"OBJECT_NAME":"IRIDIUM 124","OBJECT_ID":"2017-039H","EPOCH":"2026-03-29T04:24:15.735744","MEAN_MOTION":14.43289186,"ECCENTRICITY":0.0002115,"INCLINATION":86.4502,"RA_OF_ASC_NODE":323.832,"ARG_OF_PERICENTER":87.7365,"MEAN_ANOMALY":272.4078,"EPHEMERIS_TYPE":0,"CLASSIFICATION_TYPE":"U","NORAD_CAT_ID":42810,"ELEMENT_SET_NO":999,"REV_AT_EPOCH":46357,"BSTAR":0.00011733,"MEAN_MOTION_DOT":4.15e-6,"MEAN_MOTION_DDOT":0},{"OBJECT_NAME":"IRIDIUM 128","OBJECT_ID":"2017-039J","EPOCH":"2026-03-29T04:25:54.719040","MEAN_MOTION":14.34218483,"ECCENTRICITY":0.0002342,"INCLINATION":86.3944,"RA_OF_ASC_NODE":58.5858,"ARG_OF_PERICENTER":91.0515,"MEAN_ANOMALY":269.0949,"EPHEMERIS_TYPE":0,"CLASSIFICATION_TYPE":"U","NORAD_CAT_ID":42811,"ELEMENT_SET_NO":999,"REV_AT_EPOCH":45851,"BSTAR":4.768e-5,"MEAN_MOTION_DOT":1.53e-6,"MEAN_MOTION_DDOT":0},{"OBJECT_NAME":"IRIDIUM 121","OBJECT_ID":"2017-039K","EPOCH":"2026-03-29T05:06:38.343456","MEAN_MOTION":14.34216757,"ECCENTRICITY":0.0002277,"INCLINATION":86.4006,"RA_OF_ASC_NODE":27.0808,"ARG_OF_PERICENTER":85.1604,"MEAN_ANOMALY":274.9852,"EPHEMERIS_TYPE":0,"CLASSIFICATION_TYPE":"U","NORAD_CAT_ID":42812,"ELEMENT_SET_NO":999,"REV_AT_EPOCH":45836,"BSTAR":6.3042e-5,"MEAN_MOTION_DOT":1.96e-6,"MEAN_MOTION_DDOT":0},{"OBJECT_NAME":"IRIDIUM 133","OBJECT_ID":"2017-061A","EPOCH":"2026-03-29T03:31:06.705696","MEAN_MOTION":14.34217981,"ECCENTRICITY":0.0002247,"INCLINATION":86.3943,"RA_OF_ASC_NODE":58.7175,"ARG_OF_PERICENTER":89.1273,"MEAN_ANOMALY":271.018,"EPHEMERIS_TYPE":0,"CLASSIFICATION_TYPE":"U","NORAD_CAT_ID":42955,"ELEMENT_SET_NO":999,"REV_AT_EPOCH":44330,"BSTAR":2.1243e-5,"MEAN_MOTION_DOT":7.9e-7,"MEAN_MOTION_DDOT":0},{"OBJECT_NAME":"IRIDIUM 100","OBJECT_ID":"2017-061B","EPOCH":"2026-03-29T05:02:26.686176","MEAN_MOTION":14.34218312,"ECCENTRICITY":0.0002207,"INCLINATION":86.3943,"RA_OF_ASC_NODE":58.6115,"ARG_OF_PERICENTER":89.0978,"MEAN_ANOMALY":271.0471,"EPHEMERIS_TYPE":0,"CLASSIFICATION_TYPE":"U","NORAD_CAT_ID":42956,"ELEMENT_SET_NO":999,"REV_AT_EPOCH":44331,"BSTAR":6.5971e-5,"MEAN_MOTION_DOT":2.05e-6,"MEAN_MOTION_DDOT":0},{"OBJECT_NAME":"IRIDIUM 122","OBJECT_ID":"2017-061C","EPOCH":"2026-03-28T21:34:54.670368","MEAN_MOTION":14.3421799,"ECCENTRICITY":0.0002045,"INCLINATION":86.3941,"RA_OF_ASC_NODE":58.7418,"ARG_OF_PERICENTER":88.4954,"MEAN_ANOMALY":271.6476,"EPHEMERIS_TYPE":0,"CLASSIFICATION_TYPE":"U","NORAD_CAT_ID":42957,"ELEMENT_SET_NO":999,"REV_AT_EPOCH":44327,"BSTAR":-1.2845e-5,"MEAN_MOTION_DOT":-1.6e-7,"MEAN_MOTION_DDOT":0},{"OBJECT_NAME":"IRIDIUM 129","OBJECT_ID":"2017-061D","EPOCH":"2026-03-29T04:53:18.687264","MEAN_MOTION":14.3421759,"ECCENTRICITY":0.0002149,"INCLINATION":86.3943,"RA_OF_ASC_NODE":58.6802,"ARG_OF_PERICENTER":78.8937,"MEAN_ANOMALY":281.25,"EPHEMERIS_TYPE":0,"CLASSIFICATION_TYPE":"U","NORAD_CAT_ID":42958,"ELEMENT_SET_NO":999,"REV_AT_EPOCH":44333,"BSTAR":1.2128e-5,"MEAN_MOTION_DOT":5.4e-7,"MEAN_MOTION_DDOT":0},{"OBJECT_NAME":"IRIDIUM 119","OBJECT_ID":"2017-061E","EPOCH":"2026-03-28T21:25:46.678368","MEAN_MOTION":14.34217382,"ECCENTRICITY":0.00020651,"INCLINATION":86.3945,"RA_OF_ASC_NODE":58.8059,"ARG_OF_PERICENTER":85.7338,"MEAN_ANOMALY":274.4093,"EPHEMERIS_TYPE":0,"CLASSIFICATION_TYPE":"U","NORAD_CAT_ID":42959,"ELEMENT_SET_NO":999,"REV_AT_EPOCH":44330,"BSTAR":7.948393e-6,"MEAN_MOTION_DOT":4.2e-7,"MEAN_MOTION_DDOT":0},{"OBJECT_NAME":"IRIDIUM 107","OBJECT_ID":"2017-061F","EPOCH":"2026-03-29T04:35:02.686848","MEAN_MOTION":14.34217704,"ECCENTRICITY":0.0002072,"INCLINATION":86.3945,"RA_OF_ASC_NODE":58.7018,"ARG_OF_PERICENTER":94.6257,"MEAN_ANOMALY":265.5175,"EPHEMERIS_TYPE":0,"CLASSIFICATION_TYPE":"U","NORAD_CAT_ID":42960,"ELEMENT_SET_NO":999,"REV_AT_EPOCH":44335,"BSTAR":3.6016e-6,"MEAN_MOTION_DOT":3.0e-7,"MEAN_MOTION_DDOT":0},{"OBJECT_NAME":"IRIDIUM 132","OBJECT_ID":"2017-061G","EPOCH":"2026-03-29T04:44:10.702176","MEAN_MOTION":14.34217581,"ECCENTRICITY":0.0002094,"INCLINATION":86.3944,"RA_OF_ASC_NODE":58.6795,"ARG_OF_PERICENTER":90.0819,"MEAN_ANOMALY":270.0616,"EPHEMERIS_TYPE":0,"CLASSIFICATION_TYPE":"U","NORAD_CAT_ID":42961,"ELEMENT_SET_NO":999,"REV_AT_EPOCH":44335,"BSTAR":-1.7833e-6,"MEAN_MOTION_DOT":1.5e-7,"MEAN_MOTION_DDOT":0},{"OBJECT_NAME":"IRIDIUM 136","OBJECT_ID":"2017-061H","EPOCH":"2026-03-29T03:49:22.663776","MEAN_MOTION":14.34218193,"ECCENTRICITY":0.0002075,"INCLINATION":86.3945,"RA_OF_ASC_NODE":58.7014,"ARG_OF_PERICENTER":87.4399,"MEAN_ANOMALY":272.7035,"EPHEMERIS_TYPE":0,"CLASSIFICATION_TYPE":"U","NORAD_CAT_ID":42962,"ELEMENT_SET_NO":999,"REV_AT_EPOCH":44336,"BSTAR":2.7703e-5,"MEAN_MOTION_DOT":9.7e-7,"MEAN_MOTION_DDOT":0},{"OBJECT_NAME":"IRIDIUM 139","OBJECT_ID":"2017-061J","EPOCH":"2026-03-29T03:58:30.671328","MEAN_MOTION":14.34218427,"ECCENTRICITY":0.0002244,"INCLINATION":86.3947,"RA_OF_ASC_NODE":58.7594,"ARG_OF_PERICENTER":89.7713,"MEAN_ANOMALY":270.374,"EPHEMERIS_TYPE":0,"CLASSIFICATION_TYPE":"U","NORAD_CAT_ID":42963,"ELEMENT_SET_NO":999,"REV_AT_EPOCH":44337,"BSTAR":5.7369e-5,"MEAN_MOTION_DOT":1.8e-6,"MEAN_MOTION_DDOT":0},{"OBJECT_NAME":"IRIDIUM 125","OBJECT_ID":"2017-061K","EPOCH":"2026-03-29T03:40:14.508480","MEAN_MOTION":14.34218866,"ECCENTRICITY":0.0001654,"INCLINATION":86.3946,"RA_OF_ASC_NODE":58.8244,"ARG_OF_PERICENTER":91.2309,"MEAN_ANOMALY":268.9076,"EPHEMERIS_TYPE":0,"CLASSIFICATION_TYPE":"U","NORAD_CAT_ID":42964,"ELEMENT_SET_NO":999,"REV_AT_EPOCH":44338,"BSTAR":8.0343e-5,"MEAN_MOTION_DOT":2.45e-6,"MEAN_MOTION_DDOT":0},{"OBJECT_NAME":"IRIDIUM 135","OBJECT_ID":"2017-083A","EPOCH":"2026-03-29T04:43:27.152256","MEAN_MOTION":14.34219127,"ECCENTRICITY":0.0002186,"INCLINATION":86.4026,"RA_OF_ASC_NODE":355.4513,"ARG_OF_PERICENTER":85.6668,"MEAN_ANOMALY":274.4778,"EPHEMERIS_TYPE":0,"CLASSIFICATION_TYPE":"U","NORAD_CAT_ID":43070,"ELEMENT_SET_NO":999,"REV_AT_EPOCH":43268,"BSTAR":9.0421e-5,"MEAN_MOTION_DOT":2.73e-6,"MEAN_MOTION_DDOT":0},{"OBJECT_NAME":"IRIDIUM 138","OBJECT_ID":"2017-083B","EPOCH":"2026-03-29T03:39:31.143456","MEAN_MOTION":14.34219204,"ECCENTRICITY":0.0001864,"INCLINATION":86.4038,"RA_OF_ASC_NODE":355.1532,"ARG_OF_PERICENTER":77.9435,"MEAN_ANOMALY":282.197,"EPHEMERIS_TYPE":0,"CLASSIFICATION_TYPE":"U","NORAD_CAT_ID":43071,"ELEMENT_SET_NO":999,"REV_AT_EPOCH":43266,"BSTAR":0.00010828,"MEAN_MOTION_DOT":3.23e-6,"MEAN_MOTION_DDOT":0},{"OBJECT_NAME":"IRIDIUM 116","OBJECT_ID":"2017-083C","EPOCH":"2026-03-29T04:34:18.844896","MEAN_MOTION":14.3421592,"ECCENTRICITY":0.0002384,"INCLINATION":86.4024,"RA_OF_ASC_NODE":355.4408,"ARG_OF_PERICENTER":89.4625,"MEAN_ANOMALY":270.6844,"EPHEMERIS_TYPE":0,"CLASSIFICATION_TYPE":"U","NORAD_CAT_ID":43072,"ELEMENT_SET_NO":999,"REV_AT_EPOCH":43270,"BSTAR":0.00010256,"MEAN_MOTION_DOT":3.07e-6,"MEAN_MOTION_DDOT":0},{"OBJECT_NAME":"IRIDIUM 130","OBJECT_ID":"2017-083D","EPOCH":"2026-03-29T03:48:39.189024","MEAN_MOTION":14.34217533,"ECCENTRICITY":0.0002077,"INCLINATION":86.4027,"RA_OF_ASC_NODE":355.7212,"ARG_OF_PERICENTER":92.655,"MEAN_ANOMALY":267.4884,"EPHEMERIS_TYPE":0,"CLASSIFICATION_TYPE":"U","NORAD_CAT_ID":43073,"ELEMENT_SET_NO":999,"REV_AT_EPOCH":43264,"BSTAR":-1.809e-5,"MEAN_MOTION_DOT":-3.1e-7,"MEAN_MOTION_DDOT":0}]
